CCSDS_OMM_VERS = 2.0
CREATION_DATE  = 
ORIGINATOR     = 

OBJECT_NAME    = ATLAS CENTAUR R/B
OBJECT_ID      = 1972-065B
CENTER_NAME    = EARTH
REF_FRAME      = TEME
TIME_SYSTEM    = UTC
MEAN_ELEMENT_THEORY = SGP/SGP4

EPOCH          = 2026-01-11T04:34:49.652544
MEAN_MOTION    = 14.77502618
ECCENTRICITY   = .003457
INCLINATION    = 35.0019
RA_OF_ASC_NODE = 282.6716
ARG_OF_PERICENTER = 246.9904
MEAN_ANOMALY   = 112.7148

EPHEMERIS_TYPE = 0
CLASSIFICATION_TYPE = U
NORAD_CAT_ID   = 6155
ELEMENT_SET_NO = 999
REV_AT_EPOCH   = 83275
BSTAR          = .17652362E-3
MEAN_MOTION_DOT = .1269E-4
MEAN_MOTION_DDOT = 0

CCSDS_OMM_VERS = 2.0
CREATION_DATE  = 
ORIGINATOR     = 

OBJECT_NAME    = SL-8 R/B
OBJECT_ID      = 1975-112B
CENTER_NAME    = EARTH
REF_FRAME      = TEME
TIME_SYSTEM    = UTC
MEAN_ELEMENT_THEORY = SGP/SGP4

EPOCH          = 2026-01-11T07:47:31.062048
MEAN_MOTION    = 14.38168469
ECCENTRICITY   = .00165047
INCLINATION    = 74.0613
RA_OF_ASC_NODE = 124.4411
ARG_OF_PERICENTER = 232.8279
MEAN_ANOMALY   = 127.1369

EPHEMERIS_TYPE = 0
CLASSIFICATION_TYPE = U
NORAD_CAT_ID   = 8459
ELEMENT_SET_NO = 999
REV_AT_EPOCH   = 62362
BSTAR          = .97289617E-4
MEAN_MOTION_DOT = .269E-5
MEAN_MOTION_DDOT = 0

CCSDS_OMM_VERS = 2.0
CREATION_DATE  = 
ORIGINATOR     = 

OBJECT_NAME    = SL-3 R/B
OBJECT_ID      = 1977-057B
CENTER_NAME    = EARTH
REF_FRAME      = TEME
TIME_SYSTEM    = UTC
MEAN_ELEMENT_THEORY = SGP/SGP4

EPOCH          = 2026-01-11T06:09:42.129504
MEAN_MOTION    = 15.43779070
ECCENTRICITY   = .0008324
INCLINATION    = 97.5700
RA_OF_ASC_NODE = 180.7544
ARG_OF_PERICENTER = 124.9059
MEAN_ANOMALY   = 235.2972

EPHEMERIS_TYPE = 0
CLASSIFICATION_TYPE = U
NORAD_CAT_ID   = 10114
ELEMENT_SET_NO = 999
REV_AT_EPOCH   = 65946
BSTAR          = .32559428E-3
MEAN_MOTION_DOT = .14665E-3
MEAN_MOTION_DDOT = 0

CCSDS_OMM_VERS = 2.0
CREATION_DATE  = 
ORIGINATOR     = 

OBJECT_NAME    = SEASAT 1
OBJECT_ID      = 1978-064A
CENTER_NAME    = EARTH
REF_FRAME      = TEME
TIME_SYSTEM    = UTC
MEAN_ELEMENT_THEORY = SGP/SGP4

EPOCH          = 2026-01-11T05:17:28.008384
MEAN_MOTION    = 14.46100275
ECCENTRICITY   = .00011727
INCLINATION    = 108.0156
RA_OF_ASC_NODE = 4.8913
ARG_OF_PERICENTER = 272.3191
MEAN_ANOMALY   = 87.7821

EPHEMERIS_TYPE = 0
CLASSIFICATION_TYPE = U
NORAD_CAT_ID   = 10967
ELEMENT_SET_NO = 999
REV_AT_EPOCH   = 49820
BSTAR          = .14734501E-3
MEAN_MOTION_DOT = .389E-5
MEAN_MOTION_DDOT = 0

CCSDS_OMM_VERS = 2.0
CREATION_DATE  = 
ORIGINATOR     = 

OBJECT_NAME    = SL-14 R/B
OBJECT_ID      = 1979-011B
CENTER_NAME    = EARTH
REF_FRAME      = TEME
TIME_SYSTEM    = UTC
MEAN_ELEMENT_THEORY = SGP/SGP4

EPOCH          = 2026-01-11T02:23:49.812576
MEAN_MOTION    = 14.91818250
ECCENTRICITY   = .00147112
INCLINATION    = 82.5252
RA_OF_ASC_NODE = 151.1991
ARG_OF_PERICENTER = 248.0231
MEAN_ANOMALY   = 111.9426

EPHEMERIS_TYPE = 0
CLASSIFICATION_TYPE = U
NORAD_CAT_ID   = 11267
ELEMENT_SET_NO = 999
REV_AT_EPOCH   = 52019
BSTAR          = .7586662E-4
MEAN_MOTION_DOT = .792E-5
MEAN_MOTION_DDOT = 0

CCSDS_OMM_VERS = 2.0
CREATION_DATE  = 
ORIGINATOR     = 

OBJECT_NAME    = SL-8 R/B
OBJECT_ID      = 1979-089B
CENTER_NAME    = EARTH
REF_FRAME      = TEME
TIME_SYSTEM    = UTC
MEAN_ELEMENT_THEORY = SGP/SGP4

EPOCH          = 2026-01-11T05:53:57.749856
MEAN_MOTION    = 14.42304945
ECCENTRICITY   = .00153247
INCLINATION    = 74.0671
RA_OF_ASC_NODE = 197.3684
ARG_OF_PERICENTER = 20.4650
MEAN_ANOMALY   = 339.7117

EPHEMERIS_TYPE = 0
CLASSIFICATION_TYPE = U
NORAD_CAT_ID   = 11574
ELEMENT_SET_NO = 999
REV_AT_EPOCH   = 42782
BSTAR          = .12268754E-3
MEAN_MOTION_DOT = .379E-5
MEAN_MOTION_DDOT = 0

CCSDS_OMM_VERS = 2.0
CREATION_DATE  = 
ORIGINATOR     = 

OBJECT_NAME    = SL-14 R/B
OBJECT_ID      = 1980-005B
CENTER_NAME    = EARTH
REF_FRAME      = TEME
TIME_SYSTEM    = UTC
MEAN_ELEMENT_THEORY = SGP/SGP4

EPOCH          = 2026-01-11T01:48:10.725696
MEAN_MOTION    = 14.90836586
ECCENTRICITY   = .00157508
INCLINATION    = 82.5145
RA_OF_ASC_NODE = 1.8729
ARG_OF_PERICENTER = 1.8095
MEAN_ANOMALY   = 358.3178

EPHEMERIS_TYPE = 0
CLASSIFICATION_TYPE = U
NORAD_CAT_ID   = 11672
ELEMENT_SET_NO = 999
REV_AT_EPOCH   = 46790
BSTAR          = .72969015E-4
MEAN_MOTION_DOT = .745E-5
MEAN_MOTION_DDOT = 0

CCSDS_OMM_VERS = 2.0
CREATION_DATE  = 
ORIGINATOR     = 

OBJECT_NAME    = SL-8 R/B
OBJECT_ID      = 1981-003B
CENTER_NAME    = EARTH
REF_FRAME      = TEME
TIME_SYSTEM    = UTC
MEAN_ELEMENT_THEORY = SGP/SGP4

EPOCH          = 2026-01-11T06:33:59.117760
MEAN_MOTION    = 15.08327433
ECCENTRICITY   = .02728653
INCLINATION    = 82.9386
RA_OF_ASC_NODE = 343.0217
ARG_OF_PERICENTER = 18.9522
MEAN_ANOMALY   = 342.1621

EPHEMERIS_TYPE = 0
CLASSIFICATION_TYPE = U
NORAD_CAT_ID   = 12139
ELEMENT_SET_NO = 999
REV_AT_EPOCH   = 30601
BSTAR          = .82131323E-3
MEAN_MOTION_DOT = .31094E-3
MEAN_MOTION_DDOT = 0

CCSDS_OMM_VERS = 2.0
CREATION_DATE  = 
ORIGINATOR     = 

OBJECT_NAME    = SL-3 R/B
OBJECT_ID      = 1981-046B
CENTER_NAME    = EARTH
REF_FRAME      = TEME
TIME_SYSTEM    = UTC
MEAN_ELEMENT_THEORY = SGP/SGP4

EPOCH          = 2026-01-11T06:13:22.949760
MEAN_MOTION    = 15.40350480
ECCENTRICITY   = .00183306
INCLINATION    = 81.2328
RA_OF_ASC_NODE = 358.6024
ARG_OF_PERICENTER = 214.5032
MEAN_ANOMALY   = 145.5022

EPHEMERIS_TYPE = 0
CLASSIFICATION_TYPE = U
NORAD_CAT_ID   = 12465
ELEMENT_SET_NO = 999
REV_AT_EPOCH   = 42958
BSTAR          = .32748139E-3
MEAN_MOTION_DOT = .13328E-3
MEAN_MOTION_DDOT = 0

CCSDS_OMM_VERS = 2.0
CREATION_DATE  = 
ORIGINATOR     = 

OBJECT_NAME    = SL-3 R/B
OBJECT_ID      = 1981-103B
CENTER_NAME    = EARTH
REF_FRAME      = TEME
TIME_SYSTEM    = UTC
MEAN_ELEMENT_THEORY = SGP/SGP4

EPOCH          = 2026-01-11T06:36:16.267392
MEAN_MOTION    = 15.20652647
ECCENTRICITY   = .00141449
INCLINATION    = 81.1595
RA_OF_ASC_NODE = 280.7565
ARG_OF_PERICENTER = 115.0270
MEAN_ANOMALY   = 245.2431

EPHEMERIS_TYPE = 0
CLASSIFICATION_TYPE = U
NORAD_CAT_ID   = 12904
ELEMENT_SET_NO = 999
REV_AT_EPOCH   = 96450
BSTAR          = .29255061E-3
MEAN_MOTION_DOT = .6462E-4
MEAN_MOTION_DDOT = 0

CCSDS_OMM_VERS = 2.0
CREATION_DATE  = 
ORIGINATOR     = 

OBJECT_NAME    = SL-3 R/B
OBJECT_ID      = 1982-013B
CENTER_NAME    = EARTH
REF_FRAME      = TEME
TIME_SYSTEM    = UTC
MEAN_ELEMENT_THEORY = SGP/SGP4

EPOCH          = 2026-01-11T07:24:34.952832
MEAN_MOTION    = 15.21383058
ECCENTRICITY   = .00231838
INCLINATION    = 81.1729
RA_OF_ASC_NODE = 227.9917
ARG_OF_PERICENTER = 15.4735
MEAN_ANOMALY   = 344.7200

EPHEMERIS_TYPE = 0
CLASSIFICATION_TYPE = U
NORAD_CAT_ID   = 13068
ELEMENT_SET_NO = 999
REV_AT_EPOCH   = 39562
BSTAR          = .17184751E-3
MEAN_MOTION_DOT = .3906E-4
MEAN_MOTION_DDOT = 0

CCSDS_OMM_VERS = 2.0
CREATION_DATE  = 
ORIGINATOR     = 

OBJECT_NAME    = SL-3 R/B
OBJECT_ID      = 1982-039B
CENTER_NAME    = EARTH
REF_FRAME      = TEME
TIME_SYSTEM    = UTC
MEAN_ELEMENT_THEORY = SGP/SGP4

EPOCH          = 2026-01-11T06:25:10.513056
MEAN_MOTION    = 15.09733676
ECCENTRICITY   = .00297797
INCLINATION    = 81.1682
RA_OF_ASC_NODE = 282.1201
ARG_OF_PERICENTER = 152.5632
MEAN_ANOMALY   = 207.7174

EPHEMERIS_TYPE = 0
CLASSIFICATION_TYPE = U
NORAD_CAT_ID   = 13154
ELEMENT_SET_NO = 999
REV_AT_EPOCH   = 37297
BSTAR          = .18661067E-3
MEAN_MOTION_DOT = .3064E-4
MEAN_MOTION_DDOT = 0

