ATLAS CENTAUR R/B       
1 06155U 72065B   26011.19085246  .00001269  00000+0  17652-3 0  9993
2 06155  35.0019 282.6716 0034570 246.9904 112.7148 14.77502618832752
SL-8 R/B                
1 08459U 75112B   26011.32466507  .00000269  00000+0  97290-4 0  9992
2 08459  74.0613 124.4411 0016504 232.8279 127.1369 14.38168469623623
SL-3 R/B                
1 10114U 77057B   26011.25673761  .00014665  00000+0  32559-3 0  9998
2 10114  97.5700 180.7544 0008324 124.9059 235.2972 15.43779070659466
SEASAT 1                
1 10967U 78064A   26011.22046306  .00000389  00000+0  14735-3 0  9993
2 10967 108.0156   4.8913 0001172 272.3191  87.7821 14.46100275498203
SL-14 R/B               
1 11267U 79011B   26011.09988209  .00000792  00000+0  75867-4 0  9994
2 11267  82.5252 151.1991 0014711 248.0231 111.9426 14.91818250520194
SL-8 R/B                
1 11574U 79089B   26011.24580729  .00000379  00000+0  12269-3 0  9999
2 11574  74.0671 197.3684 0015324  20.4650 339.7117 14.42304945427825
SL-14 R/B               
1 11672U 80005B   26011.07512414  .00000745  00000+0  72969-4 0  9996
2 11672  82.5145   1.8729 0015750   1.8095 358.3178 14.90836586467903
SL-8 R/B                
1 12139U 81003B   26011.27360090  .00031094  00000+0  82131-3 0  9999
2 12139  82.9386 343.0217 0272865  18.9522 342.1621 15.08327433306016
SL-3 R/B                
1 12465U 81046B   26011.25929340  .00013328  00000+0  32748-3 0  9994
2 12465  81.2328 358.6024 0018330 214.5032 145.5022 15.40350480429581
SL-3 R/B                
1 12904U 81103B   26011.27518828  .00006462  00000+0  29255-3 0  9993
2 12904  81.1595 280.7565 0014144 115.0270 245.2431 15.20652647964503
SL-3 R/B                
1 13068U 82013B   26011.30873788  .00003906  00000+0  17185-3 0  9998
2 13068  81.1729 227.9917 0023183  15.4735 344.7200 15.21383058395628
SL-3 R/B                
1 13154U 82039B   26011.26748279  .00003064  00000+0  18661-3 0  9998
2 13154  81.1682 282.1201 0029779 152.5632 207.7174 15.09733676372979
